[{"OBJECT_NAME":"GAOFEN-9 03","OBJECT_ID":"2020-039A","EPOCH":"2026-03-09T21:55:15.121344","MEAN_MOTION":15.30529116,"ECCENTRICITY":0.0013094,"INCLINATION":97.5219,"RA_OF_ASC_NODE":201.2158,"ARG_OF_PERICENTER":77.4533,"MEAN_ANOMALY":282.8172,"EPHEMERIS_TYPE":0,"CLASSIFICATION_TYPE":"U","NORAD_CAT_ID":45794,"ELEMENT_SET_NO":999,"REV_AT_EPOCH":31856,"BSTAR":0.00039258132,"MEAN_MOTION_DOT":0.00011544,"MEAN_MOTION_DDOT":0},{"OBJECT_NAME":"STARLINK-2431","OBJECT_ID":"2021-018BE","EPOCH":"2026-03-09T17:15:23.630400","MEAN_MOTION":15.30199783,"ECCENTRICITY":0.00012288,"INCLINATION":53.1617,"RA_OF_ASC_NODE":216.7805,"ARG_OF_PERICENTER":72.2353,"MEAN_ANOMALY":287.8782,"EPHEMERIS_TYPE":0,"CLASSIFICATION_TYPE":"U","NORAD_CAT_ID":47839,"ELEMENT_SET_NO":999,"REV_AT_EPOCH":27710,"BSTAR":-4.2907816e-5,"MEAN_MOTION_DOT":-1.63e-5,"MEAN_MOTION_DDOT":0}]
